{
  "type": "FeatureCollection",
  "features": [
    {
      "type": "Feature",
      "properties": {
        "norad_id": 66638,
        "name": "STARLINK-35972",
        "group": "last-30-days",
        "lat": 19.160335899973305,
        "lon": 32.08438952854142,
        "alt_km": 328.08844602871795,
        "timestamp": "2025-12-04T13:51:59.228724+00:00",
        "meta_object_name": "STARLINK-35972",
        "meta_object_id": "2025-271X",
        "meta_epoch": "2025-12-04T00:00:02.000160",
        "meta_mean_motion": 15.82225759,
        "meta_eccentricity": 8.193e-05,
        "meta_inclination": 53.156,
        "meta_ra_of_asc_node": 230.0843,
        "meta_arg_of_pericenter": 74.7905,
        "meta_mean_anomaly": 30.343,
        "meta_ephemeris_type": 0,
        "meta_classification_type": "U",
        "meta_norad_cat_id": 66638,
        "meta_element_set_no": 999,
        "meta_rev_at_epoch": 284,
        "meta_bstar": -0.0090968916,
        "meta_mean_motion_dot": -0.01662822,
        "meta_mean_motion_ddot": 0,
        "tle_line1": "1 66638U 25271X   25338.00002315 -.01662822  00000+0 -90969-2 0  9991",
        "tle_line2": "2 66638  53.1560 230.0843 0000819  74.7905  30.3430 15.82225759  2844"
      },
      "geometry": {
        "type": "Point",
        "coordinates": [
          32.08438952854142,
          19.160335899973305
        ]
      }
    },
    {
      "type": "Feature",
      "properties": {
        "norad_id": 66639,
        "name": "STARLINK-35908",
        "group": "last-30-days",
        "lat": 11.307988404614049,
        "lon": 38.54095428738133,
        "alt_km": 322.2154897528844,
        "timestamp": "2025-12-04T13:51:59.228734+00:00",
        "meta_object_name": "STARLINK-35908",
        "meta_object_id": "2025-271Y",
        "meta_epoch": "2025-12-04T02:34:25.508352",
        "meta_mean_motion": 15.84226755,
        "meta_eccentricity": 0.00097052,
        "meta_inclination": 53.1556,
        "meta_ra_of_asc_node": 229.5367,
        "meta_arg_of_pericenter": 335.6046,
        "meta_mean_anomaly": 24.4518,
        "meta_ephemeris_type": 0,
        "meta_classification_type": "U",
        "meta_norad_cat_id": 66639,
        "meta_element_set_no": 999,
        "meta_rev_at_epoch": 285,
        "meta_bstar": 0.0030756132,
        "meta_mean_motion_dot": 0.00777445,
        "meta_mean_motion_ddot": 0,
        "tle_line1": "1 66639U 25271Y   25338.10723968  .00777445  00000+0  30756-2 0  9990",
        "tle_line2": "2 66639  53.1556 229.5367 0009705 335.6046  24.4518 15.84226755  2853"
      },
      "geometry": {
        "type": "Point",
        "coordinates": [
          38.54095428738133,
          11.307988404614049
        ]
      }
    },
    {
      "type": "Feature",
      "properties": {
        "norad_id": 66640,
        "name": "STARLINK-35921",
        "group": "last-30-days",
        "lat": 15.322131197815269,
        "lon": 35.320111583417415,
        "alt_km": 327.81426366814685,
        "timestamp": "2025-12-04T13:51:59.228744+00:00",
        "meta_object_name": "STARLINK-35921",
        "meta_object_id": "2025-271Z",
        "meta_epoch": "2025-12-04T07:07:23.950272",
        "meta_mean_motion": 15.81318878,
        "meta_eccentricity": 0.0004963,
        "meta_inclination": 53.1562,
        "meta_ra_of_asc_node": 228.5854,
        "meta_arg_of_pericenter": 9.2257,
        "meta_mean_anomaly": 350.8856,
        "meta_ephemeris_type": 0,
        "meta_classification_type": "U",
        "meta_norad_cat_id": 66640,
        "meta_element_set_no": 999,
        "meta_rev_at_epoch": 288,
        "meta_bstar": 0.0015697768,
        "meta_mean_motion_dot": 0.00327985,
        "meta_mean_motion_ddot": 0,
        "tle_line1": "1 66640U 25271Z   25338.29680498  .00327985  00000+0  15698-2 0  9990",
        "tle_line2": "2 66640  53.1562 228.5854 0004963   9.2257 350.8856 15.81318878  2880"
      },
      "geometry": {
        "type": "Point",
        "coordinates": [
          35.320111583417415,
          15.322131197815269
        ]
      }
    },
    {
      "type": "Feature",
      "properties": {
        "norad_id": 66641,
        "name": "STARLINK-35923",
        "group": "last-30-days",
        "lat": 6.1548773345514105,
        "lon": 42.51195156244862,
        "alt_km": 326.93680733895235,
        "timestamp": "2025-12-04T13:51:59.228755+00:00",
        "meta_object_name": "STARLINK-35923",
        "meta_object_id": "2025-271AA",
        "meta_epoch": "2025-12-04T04:02:26.143296",
        "meta_mean_motion": 15.81718152,
        "meta_eccentricity": 0.00011943,
        "meta_inclination": 53.1554,
        "meta_ra_of_asc_node": 229.2043,
        "meta_arg_of_pericenter": 158.0841,
        "meta_mean_anomaly": 202.0234,
        "meta_ephemeris_type": 0,
        "meta_classification_type": "U",
        "meta_norad_cat_id": 66641,
        "meta_element_set_no": 999,
        "meta_rev_at_epoch": 286,
        "meta_bstar": -0.0043987252,
        "meta_mean_motion_dot": -0.00822461,
        "meta_mean_motion_ddot": 0,
        "tle_line1": "1 66641U 25271AA  25338.16835814 -.00822461  00000+0 -43987-2 0  9994",
        "tle_line2": "2 66641  53.1554 229.2043 0001194 158.0841 202.0234 15.81718152  2860"
      },
      "geometry": {
        "type": "Point",
        "coordinates": [
          42.51195156244862,
          6.1548773345514105
        ]
      }
    },
    {
      "type": "Feature",
      "properties": {
        "norad_id": 66642,
        "name": "STARLINK-35926",
        "group": "last-30-days",
        "lat": 7.906462820420168,
        "lon": 41.17783813103063,
        "alt_km": 326.8855320829034,
        "timestamp": "2025-12-04T13:51:59.228765+00:00",
        "meta_object_name": "STARLINK-35926",
        "meta_object_id": "2025-271AB",
        "meta_epoch": "2025-12-04T04:02:59.482464",
        "meta_mean_motion": 15.8171776,
        "meta_eccentricity": 7.72e-05,
        "meta_inclination": 53.1557,
        "meta_ra_of_asc_node": 229.2075,
        "meta_arg_of_pericenter": 174.0832,
        "meta_mean_anomaly": 186.0201,
        "meta_ephemeris_type": 0,
        "meta_classification_type": "U",
        "meta_norad_cat_id": 66642,
        "meta_element_set_no": 999,
        "meta_rev_at_epoch": 282,
        "meta_bstar": -0.0043016171,
        "meta_mean_motion_dot": -0.0080574,
        "meta_mean_motion_ddot": 0,
        "tle_line1": "1 66642U 25271AB  25338.16874401 -.00805740  00000+0 -43016-2 0  9994",
        "tle_line2": "2 66642  53.1557 229.2075 0000772 174.0832 186.0201 15.81717760  2823"
      },
      "geometry": {
        "type": "Point",
        "coordinates": [
          41.17783813103063,
          7.906462820420168
        ]
      }
    },
    {
      "type": "Feature",
      "properties": {
        "norad_id": 66643,
        "name": "STARLINK-35918",
        "group": "last-30-days",
        "lat": 11.520014428130175,
        "lon": 38.37433534331152,
        "alt_km": 324.87954844893466,
        "timestamp": "2025-12-04T13:51:59.228775+00:00",
        "meta_object_name": "STARLINK-35918",
        "meta_object_id": "2025-271AC",
        "meta_epoch": "2025-12-04T07:06:05.305536",
        "meta_mean_motion": 15.81332685,
        "meta_eccentricity": 0.00047257,
        "meta_inclination": 53.1562,
        "meta_ra_of_asc_node": 228.5791,
        "meta_arg_of_pericenter": 215.6429,
        "meta_mean_anomaly": 144.4279,
        "meta_ephemeris_type": 0,
        "meta_classification_type": "U",
        "meta_norad_cat_id": 66643,
        "meta_element_set_no": 999,
        "meta_rev_at_epoch": 288,
        "meta_bstar": -0.0029916719,
        "meta_mean_motion_dot": -0.00566864,
        "meta_mean_motion_ddot": 0,
        "tle_line1": "1 66643U 25271AC  25338.29589474 -.00566864  00000+0 -29917-2 0  9997",
        "tle_line2": "2 66643  53.1562 228.5791 0004725 215.6429 144.4279 15.81332685  2881"
      },
      "geometry": {
        "type": "Point",
        "coordinates": [
          38.37433534331152,
          11.520014428130175
        ]
      }
    },
    {
      "type": "Feature",
      "properties": {
        "norad_id": 66644,
        "name": "STARLINK-35938",
        "group": "last-30-days",
        "lat": 9.812021868464173,
        "lon": 39.70945630684388,
        "alt_km": 326.28025101027833,
        "timestamp": "2025-12-04T13:51:59.228785+00:00",
        "meta_object_name": "STARLINK-35938",
        "meta_object_id": "2025-271AD",
        "meta_epoch": "2025-12-04T07:05:34.951488",
        "meta_mean_motion": 15.81341829,
        "meta_eccentricity": 0.00014773,
        "meta_inclination": 53.1561,
        "meta_ra_of_asc_node": 228.5764,
        "meta_arg_of_pericenter": 116.2756,
        "meta_mean_anomaly": 243.8419,
        "meta_ephemeris_type": 0,
        "meta_classification_type": "U",
        "meta_norad_cat_id": 66644,
        "meta_element_set_no": 999,
        "meta_rev_at_epoch": 288,
        "meta_bstar": -0.0022389429,
        "meta_mean_motion_dot": -0.00430598,
        "meta_mean_motion_ddot": 0,
        "tle_line1": "1 66644U 25271AD  25338.29554342 -.00430598  00000+0 -22389-2 0  9994",
        "tle_line2": "2 66644  53.1561 228.5764 0001477 116.2756 243.8419 15.81341829  2881"
      },
      "geometry": {
        "type": "Point",
        "coordinates": [
          39.70945630684388,
          9.812021868464173
        ]
      }
    }
  ]
}